{"type": "FeatureCollection", "features": [ {"type": "Feature", "properties": {"norad_id": 28649, "name": "IRS-P5 (CARTOSAT-1)", "group": "resource", "lat": 25.035328194745578, "lon": 14.106767874923968, "alt_km": 595.3023406955745, "timestamp": "2025-12-17T10:52:54.005430+00:00", "meta": {"OBJECT_NAME": "IRS-P5 (CARTOSAT-1)", "OBJECT_ID": "2005-017A", "EPOCH": "2025-12-16T23:29:22.832736", "MEAN_MOTION": 14.90419494, "ECCENTRICITY": 9.56e-05, "INCLINATION": 97.549, "RA_OF_ASC_NODE": 17.2042, "ARG_OF_PERICENTER": 44.6475, "MEAN_ANOMALY": 315.4821, "EPHEMERIS_TYPE": 0, "CLASSIFICATION_TYPE": "U", "NORAD_CAT_ID": 28649, "ELEMENT_SET_NO": 999, "REV_AT_EPOCH": 11667, "BSTAR": 0.00015643253, "MEAN_MOTION_DOT": 1.472e-05, "MEAN_MOTION_DDOT": 0}, "tle": {"line1": "1 28649U 05017A   25350.97873649  .00001472  00000+0  15643-3 0  9995", "line2": "2 28649  97.5490  17.2042 0000956  44.6475 315.4821 14.90419494116671"}}, "geometry": {"type": "Point", "coordinates": [14.106767874923968, 25.035328194745578]}}, {"type": "Feature", "properties": {"norad_id": 28893, "name": "SINAH 1", "group": "resource", "lat": -67.62671185276837, "lon": 140.69035326071184, "alt_km": 698.3516368410274, "timestamp": "2025-12-17T10:52:54.005441+00:00", "meta": {"OBJECT_NAME": "SINAH 1", "OBJECT_ID": "2005-043D", "EPOCH": "2025-12-16T23:42:55.346976", "MEAN_MOTION": 14.63967195, "ECCENTRICITY": 0.00155238, "INCLINATION": 98.2606, "RA_OF_ASC_NODE": 119.5568, "ARG_OF_PERICENTER": 124.5117, "MEAN_ANOMALY": 235.7553, "EPHEMERIS_TYPE": 0, "CLASSIFICATION_TYPE": "U", "NORAD_CAT_ID": 28893, "ELEMENT_SET_NO": 999, "REV_AT_EPOCH": 7386, "BSTAR": 8.1875888e-05, "MEAN_MOTION_DOT": 3.8e-06, "MEAN_MOTION_DDOT": 0}, "tle": {"line1": "1 28893U 05043D   25350.98814059  .00000380  00000+0  81876-4 0  9995", "line2": "2 28893  98.2606 119.5568 0015523 124.5117 235.7553 14.63967195 73860"}}, "geometry": {"type": "Point", "coordinates": [140.69035326071184, -67.62671185276837]}}, {"type": "Feature", "properties": {"norad_id": 29079, "name": "EROS B", "group": "resource", "lat": -77.36808627982832, "lon": 143.40418318179272, "alt_km": 365.14825169077994, "timestamp": "2025-12-17T10:52:54.005451+00:00", "meta": {"OBJECT_NAME": "EROS B", "OBJECT_ID": "2006-014A", "EPOCH": "2025-12-16T22:58:50.288736", "MEAN_MOTION": 15.69605363, "ECCENTRICITY": 0.00030335, "INCLINATION": 97.3463, "RA_OF_ASC_NODE": 107.7359, "ARG_OF_PERICENTER": 310.5784, "MEAN_ANOMALY": 49.5213, "EPHEMERIS_TYPE": 0, "CLASSIFICATION_TYPE": "U", "NORAD_CAT_ID": 29079, "ELEMENT_SET_NO": 999, "REV_AT_EPOCH": 9146, "BSTAR": 0.0011971946, "MEAN_MOTION_DOT": 0.00143424, "MEAN_MOTION_DDOT": 0}, "tle": {"line1": "1 29079U 06014A   25350.95752649  .00143424  00000+0  11972-2 0  9999", "line2": "2 29079  97.3463 107.7359 0003033 310.5784  49.5213 15.69605363 91468"}}, "geometry": {"type": "Point", "coordinates": [143.40418318179272, -77.36808627982832]}}, {"type": "Feature", "properties": {"norad_id": 29228, "name": "RESURS-DK 1", "group": "resource", "lat": -37.3094626369034, "lon": 73.48318370791614, "alt_km": 533.2929589634223, "timestamp": "2025-12-17T10:52:54.005462+00:00", "meta": {"OBJECT_NAME": "RESURS-DK 1", "OBJECT_ID": "2006-021A", "EPOCH": "2025-12-16T23:56:45.848832", "MEAN_MOTION": 15.12185708, "ECCENTRICITY": 0.00069338, "INCLINATION": 69.9336, "RA_OF_ASC_NODE": 90.8344, "ARG_OF_PERICENTER": 255.7353, "MEAN_ANOMALY": 104.3043, "EPHEMERIS_TYPE": 0, "CLASSIFICATION_TYPE": "U", "NORAD_CAT_ID": 29228, "ELEMENT_SET_NO": 999, "REV_AT_EPOCH": 7502, "BSTAR": 0.00013796725, "MEAN_MOTION_DOT": 2.28e-05, "MEAN_MOTION_DDOT": 0}, "tle": {"line1": "1 29228U 06021A   25350.99775288  .00002280  00000+0  13797-3 0  9993", "line2": "2 29228  69.9336  90.8344 0006933 255.7353 104.3043 15.12185708 75027"}}, "geometry": {"type": "Point", "coordinates": [73.48318370791614, -37.3094626369034]}}, {"type": "Feature", "properties": {"norad_id": 29268, "name": "ARIRANG-2 (KOMPSAT-2)", "group": "resource", "lat": -24.875702613875124, "lon": -3.960385747403234, "alt_km": 683.9750083474728, "timestamp": "2025-12-17T10:52:54.005474+00:00", "meta": {"OBJECT_NAME": "ARIRANG-2 (KOMPSAT-2)", "OBJECT_ID": "2006-031A", "EPOCH": "2025-12-17T00:51:58.570848", "MEAN_MOTION": 14.64497981, "ECCENTRICITY": 0.0013336, "INCLINATION": 97.8259, "RA_OF_ASC_NODE": 179.2991, "ARG_OF_PERICENTER": 294.5205, "MEAN_ANOMALY": 231.8383, "EPHEMERIS_TYPE": 0, "CLASSIFICATION_TYPE": "U", "NORAD_CAT_ID": 29268, "ELEMENT_SET_NO": 999, "REV_AT_EPOCH": 3481, "BSTAR": 7.1278394e-05, "MEAN_MOTION_DOT": 3.33e-06, "MEAN_MOTION_DDOT": 0}, "tle": {"line1": "1 29268U 06031A   25351.03609457  .00000333  00000+0  71278-4 0  9994", "line2": "2 29268  97.8259 179.2991 0013336 294.5205 231.8383 14.64497981 34817"}}, "geometry": {"type": "Point", "coordinates": [-3.960385747403234, -24.875702613875124]}}, {"type": "Feature", "properties": {"norad_id": 29709, "name": "LAPAN-TUBSAT", "group": "resource", "lat": 40.506595176263986, "lon": 168.71795791054163, "alt_km": 606.4231800826892, "timestamp": "2025-12-17T10:52:54.005484+00:00", "meta": {"OBJECT_NAME": "LAPAN-TUBSAT", "OBJECT_ID": "2007-001A", "EPOCH": "2025-12-16T22:56:41.920800", "MEAN_MOTION": 14.85680279, "ECCENTRICITY": 0.00135755, "INCLINATION": 98.1257, "RA_OF_ASC_NODE": 341.1996, "ARG_OF_PERICENTER": 61.7588, "MEAN_ANOMALY": 298.4995, "EPHEMERIS_TYPE": 0, "CLASSIFICATION_TYPE": "U", "NORAD_CAT_ID": 29709, "ELEMENT_SET_NO": 999, "REV_AT_EPOCH": 2409, "BSTAR": 0.00012915834, "MEAN_MOTION_DOT": 1.064e-05, "MEAN_MOTION_DDOT": 0}, "tle": {"line1": "1 29709U 07001A   25350.95604075  .00001064  00000+0  12916-3 0  9998", "line2": "2 29709  98.1257 341.1996 0013575  61.7588 298.4995 14.85680279 24091"}}, "geometry": {"type": "Point", "coordinates": [168.71795791054163, 40.506595176263986]}}, {"type": "Feature", "properties": {"norad_id": 31113, "name": "HAIYANG-1B", "group": "resource", "lat": 2.821337198157686, "lon": 155.95063337970814, "alt_km": 800.0085009272852, "timestamp": "2025-12-17T10:52:54.005495+00:00", "meta": {"OBJECT_NAME": "HAIYANG-1B", "OBJECT_ID": "2007-010A", "EPOCH": "2025-12-16T22:18:38.113920", "MEAN_MOTION": 14.30966518, "ECCENTRICITY": 0.00140819, "INCLINATION": 98.3317, "RA_OF_ASC_NODE": 335.0347, "ARG_OF_PERICENTER": 26.1872, "MEAN_ANOMALY": 334.0022, "EPHEMERIS_TYPE": 0, "CLASSIFICATION_TYPE": "U", "NORAD_CAT_ID": 31113, "ELEMENT_SET_NO": 999, "REV_AT_EPOCH": 97456, "BSTAR": 5.9148659e-05, "MEAN_MOTION_DOT": 1.14e-06, "MEAN_MOTION_DDOT": 0}, "tle": {"line1": "1 31113U 07010A   25350.92960780  .00000114  00000+0  59149-4 0  9990", "line2": "2 31113  98.3317 335.0347 0014081  26.1872 334.0022 14.30966518974565"}}, "geometry": {"type": "Point", "coordinates": [155.95063337970814, 2.821337198157686]}}, {"type": "Feature", "properties": {"norad_id": 31598, "name": "COSMO-SKYMED 1", "group": "resource", "lat": -81.16685330831183, "lon": -66.19655741360165, "alt_km": 588.2992266064521, "timestamp": "2025-12-17T10:52:54.005505+00:00", "meta": {"OBJECT_NAME": "COSMO-SKYMED 1", "OBJECT_ID": "2007-023A", "EPOCH": "2025-12-17T00:03:47.144736", "MEAN_MOTION": 14.95799043, "ECCENTRICITY": 0.00015252, "INCLINATION": 97.8834, "RA_OF_ASC_NODE": 176.4294, "ARG_OF_PERICENTER": 87.9521, "MEAN_ANOMALY": 272.1874, "EPHEMERIS_TYPE": 0, "CLASSIFICATION_TYPE": "U", "NORAD_CAT_ID": 31598, "ELEMENT_SET_NO": 999, "REV_AT_EPOCH": 254, "BSTAR": 0.00033236908, "MEAN_MOTION_DOT": 3.65e-05, "MEAN_MOTION_DDOT": 0}, "tle": {"line1": "1 31598U 07023A   25351.00262899  .00003650  00000+0  33237-3 0  9994", "line2": "2 31598  97.8834 176.4294 0001525  87.9521 272.1874 14.95799043  2548"}}, "geometry": {"type": "Point", "coordinates": [-66.19655741360165, -81.16685330831183]}}, {"type": "Feature", "properties": {"norad_id": 31698, "name": "TERRASAR-X", "group": "resource", "lat": -42.05498896593069, "lon": 3.540498425799165, "alt_km": 515.8663324210575, "timestamp": "2025-12-17T10:52:54.005517+00:00", "meta": {"OBJECT_NAME": "TERRASAR-X", "OBJECT_ID": "2007-026A", "EPOCH": "2025-12-16T12:56:11.976864", "MEAN_MOTION": 15.19148195, "ECCENTRICITY": 0.00018105, "INCLINATION": 97.4453, "RA_OF_ASC_NODE": 355.8641, "ARG_OF_PERICENTER": 90.2212, "MEAN_ANOMALY": 269.923, "EPHEMERIS_TYPE": 0, "CLASSIFICATION_TYPE": "U", "NORAD_CAT_ID": 31698, "ELEMENT_SET_NO": 999, "REV_AT_EPOCH": 2549, "BSTAR": 6.9853987e-05, "MEAN_MOTION_DOT": 1.4e-05, "MEAN_MOTION_DDOT": 0}, "tle": {"line1": "1 31698U 07026A   25350.53902751  .00001400  00000+0  69854-4 0  9999", "line2": "2 31698  97.4453 355.8641 0001810  90.2212 269.9230 15.19148195 25494"}}, "geometry": {"type": "Point", "coordinates": [3.540498425799165, -42.05498896593069]}}, {"type": "Feature", "properties": {"norad_id": 32060, "name": "WORLDVIEW-1 (WV-1)", "group": "resource", "lat": 52.77923401312518, "lon": 99.03841875913517, "alt_km": 486.28416580348494, "timestamp": "2025-12-17T10:52:54.005541+00:00", "meta": {"OBJECT_NAME": "WORLDVIEW-1 (WV-1)", "OBJECT_ID": "2007-041A", "EPOCH": "2025-12-16T20:28:22.752768", "MEAN_MOTION": 15.24759067, "ECCENTRICITY": 8.68e-05, "INCLINATION": 97.3838, "RA_OF_ASC_NODE": 108.2762, "ARG_OF_PERICENTER": 114.2837, "MEAN_ANOMALY": 245.8491, "EPHEMERIS_TYPE": 0, "CLASSIFICATION_TYPE": "U", "NORAD_CAT_ID": 32060, "ELEMENT_SET_NO": 999, "REV_AT_EPOCH": 1510, "BSTAR": 0.00027812589, "MEAN_MOTION_DOT": 6.82e-05, "MEAN_MOTION_DDOT": 0}, "tle": {"line1": "1 32060U 07041A   25350.85304112  .00006820  00000+0  27813-3 0  9991", "line2": "2 32060  97.3838 108.2762 0000868 114.2837 245.8491 15.24759067 15101"}}, "geometry": {"type": "Point", "coordinates": [99.03841875913517, 52.77923401312518]}}]}